STARLINK-4130           
1 53263U 22086X   26068.66547543  .00005989  00000+0  39433-3 0  9994
2 53263  53.2186 194.2295 0001489  78.5274 281.5885 15.08813544201068
STARLINK-5895           
1 55964U 23037BC  26068.93316413  .00010921  00000+0  72850-3 0  9993
2 55964  69.9972 260.0280 0004986 264.4993  95.5602 15.07243555164606
